#dP2022  3 19  0  0  0.00000000      96 __u+U ITR00 EXT  IAC
## 2201 518400.00000000   900.00000000 59657 0.0000000000000
+  116   C06C07C08C09C10C11C12C13C14C16C19C20C21C22C23C24C25
+        C26C27C28C29C30C32C33C34C35C36C37C38C39C40C41C42C43
+        C44C45C46E01E02E03E04E05E07E08E10E11E12E13E14E15E18
+        E19E21E24E25E26E27E30E31E33E34E36G01G02G03G04G05G06
+        G07G08G09G10G11G12G13G14G15G16G17G18G19G20G21G22G23
+        G24G25G26G27G28G29G31G32J01J02J03R01R02R03R04R05R07
+        R08R09R11R12R13R14R15R17R18R19R20R21R22R24  0  0  0
++        11  9  9 12 10  9 10  8  8 12  7  9  8  9  7  9  9
++         7  7  8  9 10  8  8  7 10  8  8  9 10  8  9  7  8
++         7 10  8  7  8  7  8  7  7  8 11  7  8  8  8  8  8
++         7  8  8  8  8  7  8  7  7  7  8  7  8  7  8  6  7
++         7  7  7  7  7  8  8  6  8  7  7  8  8  6  8  7  7
++         8  8  8  6  7  8  8  7 11  9  8  8  7  8  8  7  9
++         7  8 10  8  8  9  8  8  8  8  9  9 10  8  0  0  0
%c M  cc GPS ccc cccc cccc cccc cccc ccccc ccccc ccccc ccccc
%c cc cc ccc ccc cccc cccc cccc cccc ccccc ccccc ccccc ccccc
%f  0.0000000  0.000000000  0.00000000000  0.000000000000000
%f  0.0000000  0.000000000  0.00000000000  0.000000000000000
%i    0    0    0    0      0      0      0      0         0
%i    0    0    0    0      0      0      0      0         0
/* IAC                                ULTRA-RAPID PREDICTION
/* S/V CLOCKS ARE ALIGNED TO GNSS TIME                      
/* G:C1WC2W R:C1PC2P E:C1XC5X C:C2IC6I J:C1CC2S             
/* PCV:IGS14_2196 OL/AL:FES2004  NONE     YN ORB:CoN CLK:CoN
*  2022 03 19  7 30  0.00000000
PC06  -2978.013430  35462.117626 -22445.123331   -363.726488
PC07 -12975.876866  25395.384196  31020.231094    116.692748
PC08 -18689.981706  36333.418287 -10678.345975    205.864909
PC09   4814.915478  39645.285836 -12417.574594   -617.766314
PC10  -3547.235173  26828.018272  32558.467126    138.528631
PC11  10804.850148 -12385.220682 -22484.516881    238.335990
PC12  17681.033922   7191.465635 -20324.027656    684.166213
PC13 -11183.538388  36430.765778 -18196.923361    -85.557043
PC14  20987.022820  -9129.029869  16032.946847    451.996078
PC16  -3510.774883  34420.690303 -23753.891305    104.741740
PC19 -11757.108939  13596.646523 -21309.495633    885.347662
PC20 -25813.635534   4199.565135  -9673.526121   -850.458294
PC21  25242.079003   8346.443091  -8497.031444   -913.624568
PC22   9688.666174  15524.897608 -21068.629746   -961.527527
PC23    -24.236899 -21607.233148 -17658.921059   -941.853683
PC24  20992.891162 -10971.785011  14716.688188   -947.330427
PC25  13886.030586 -24008.676612  -2982.383194   -763.741147
PC26  15416.876086   5979.450706  22461.899806    764.063821
PC27 -17786.135695 -15992.325002  14372.389148    694.209597
PC28  -9677.136797 -26081.308123  -2220.166115     45.174270
PC29  -3670.101450  21039.609610  17949.523666    529.598477
PC30 -15875.442932   3307.745553  22706.361526    495.416426
PC32 -25247.817433  -8217.517904   8592.478630   -967.837226
PC33  11793.617305 -13679.653261  21287.967353   -967.857143
PC34  15475.464878  -4426.496517 -22805.521129   -445.075456
PC35  10025.230473  25842.025710   3029.751031    188.833458
PC36 -14760.423760  23556.106688   2508.600432   -948.465918
PC37 -14611.427430  -7400.574926 -22586.209196   -938.729579
PC38 -21996.833753  35886.488049  -3460.458060    218.992523
PC39  -7140.447429  30056.422947 -28596.259016     34.881996
PC40 -17867.637422  18882.366850  33132.515603    253.513877
PC41  -9197.186297 -15626.892070  21267.678040   -959.133704
PC42  26238.038639  -3669.831968   8846.377941   -939.597630
PC43   4337.862959 -20642.159560 -18294.148675   -935.201897
PC44  18388.165923  15436.276664 -14203.785810    599.571038
PC45    157.978684  21444.293767  17865.599803    708.560876
PC46 -20962.815906  12362.896756 -13695.253503   -225.493991
PE01   5028.446992  15957.853659  24413.434887   -599.622652
PE02  -5239.134841 -15874.795612 -24433.371609    287.200573
PE03 -15354.689322 -21769.453455  12893.358477   -538.903914
PE04  25801.589233  13587.706812   5090.557619   -987.712956
PE05   4317.518979 -17303.684728  23629.891578   -199.003741
PE07 -21191.638888   2831.610628 -20459.544479   -649.805818
PE08 -25884.858937 -13271.618553  -5445.522199   -497.613368
PE10  16117.587217   -593.469646 -24824.615545   -501.384351
PE11  15346.146739 -12500.435964 -22022.795003   4192.315304
PE12  14439.332129  10824.812556 -23455.482224   4706.243330
PE13 -15385.822848  11774.776371  22380.712274    427.389290
PE14  20250.598269  -7645.493677 -23947.728196  -1783.371744
PE15 -14349.648026 -10987.028897  23453.446824    756.912295
PE18  -9507.528377  12207.782488  18450.993210  -1666.913868
PE19  13251.698277  21892.550787 -14863.413139  -1560.767729
PE21 -14620.229555  19471.246706  16831.481665   -723.389538
PE24  27344.359396 -11106.121072   2032.819933   -513.413574
PE25  14844.071255 -19444.843930 -16657.059336   -567.317900
PE26  -6952.071009  27855.304278   7199.868343   -929.382550
PE27 -27051.882220  12007.375961   -846.661256   -256.479210
PE30 -22842.415542  -3400.314244 -18541.660137   -360.426795
PE31  23453.451964   2467.713210  17884.903463   -493.753161
PE33   4853.774900  27162.000315 -10688.816872   -458.435052
PE34  -5029.125472 -27066.292885  10874.423523   -507.528428
PE36   7372.123708 -27489.924641  -8155.448451   -347.368704
PG01 -13324.962237  18147.890280  13517.450778    405.413119
PG02  14440.954590   3456.979709 -21360.545816   -652.414788
PG03 -21297.337254  13143.050890  -8828.977013   -170.036033
PG04 -12241.307372   9211.180363 -21693.939077   -182.588138
PG05  25446.450404  -4228.952440  -6815.465746    -75.197925
PG06   6862.549492  19539.602717 -16516.040902    236.352811
PG07  -4848.560995  25822.131785   1226.973042    316.735879
PG08 -19416.803656   -136.545107  18247.352205    -60.433174
PG09  -1337.232237  17576.137684 -19924.820926   -348.952710
PG10  -6113.727882 -13797.291242  22012.006318   -351.428373
PG11  14335.664248   5079.129921 -21779.631332    -58.746889
PG12  23765.990315 -10119.549913  -6143.975148   -187.116932
PG13  20500.738158   9519.032532  13929.035349    279.340367
PG14   4543.372080  14700.843238  21643.657418    -95.240778
PG15  19267.668438  -2701.357552  17808.947639    -75.660702
PG16 -24782.466636  -1695.922416 -10297.562785   -482.324685
PG17  11874.111418  21750.933299   9919.106444    589.127032
PG18   5640.721761 -25885.907168    720.311000    216.430226
PG19  16814.001565  20604.126455   1674.780371    132.952484
PG20  21675.921693   1419.265932 -15117.675968    516.236393
PG21 -15584.274152   7583.270909  20607.425832    159.557398
PG22 -18270.861097 -19406.933520   -165.524289    229.785355
PG23   6544.792145 -16624.561101  19611.885472     -8.040961
PG24  14241.780462 -14686.567747  16420.709446    266.630203
PG25  13499.175645 -16350.631014 -16108.292629    300.316117
PG26 -17170.751749  -8180.528559 -18744.087452    191.956227
PG27 -22186.685311 -10920.601125  10008.667773    158.720971
PG28  13061.394256  11545.757107  20490.693995    377.241361
PG29   4079.466525 -15964.743976 -20867.372203   -493.080934
PG31  -8921.679302 -17275.197601 -18007.703193   -169.583997
PG32 -15736.988833 -20466.676854   6781.670319    -87.684026
PJ01 -29280.174104  13615.907465 -22590.667637    190.613595
PJ02 -30931.071725  27890.142056  11670.123510     -2.073838
PJ03 -25936.531424  24628.531238  27384.421643     -1.058753
PR01  -8486.531597   8863.905726 -22354.377911      7.296747
PR02  12348.422299  12680.330839 -18293.379631    512.956990
PR03  23795.333877   8507.538303  -3208.834132     53.354053
PR04  21698.898356   -141.680611  13433.744941    132.600693
PR05   7692.743052  -8777.696444  22693.610011     89.623858
PR07 -24006.866075  -8305.527121   2617.095819     32.822334
PR08 -21698.118170    263.941743 -13368.557695    -64.105669
PR09     20.126098 -14620.313952 -20908.226192     45.125857
PR11 -19634.810770  12590.284825 -10307.398102     43.161761
PR12 -14386.679374  19426.502430   8196.941816     17.500248
PR13  -1235.797960  15077.442419  20517.950969    -19.649125
PR14  13785.554865   1059.060045  21444.047105     75.554819
PR15  19872.864097 -12808.748034   9585.801346     97.447561
PR17  11687.003579  14014.766782 -17829.845608    510.723793
PR18   9847.583604  -3621.009587 -23237.122869    110.764049
PR19   3991.001109 -18424.614994 -17185.389622   -182.121215
PR20  -5786.016245 -24817.779860   1628.922532    -66.992137
PR21 -11661.607162 -12693.380525  18795.633089   -286.469939
PR22  -9613.558284   4349.407960  23205.048895   -171.493790
PR24   6680.071760  24514.343909  -2278.824022     85.068253
EOF
